start=new Date('2022-04-24T00:00:00.000Z').valueOf();
sats=[{"OBJECT_ID":"2020-019AG","LAUNCH_DATE":"2020-03-18","NORAD_CAT_ID":"45390","REV_AT_EPOCH":"11654","SEMIMAJOR_AXIS":"6925.392","CENTER_NAME":"EARTH","SITE":"AFETR","RA_OF_ASC_NODE":"24.3885","DECAY_DATE":null,"BSTAR":"-0.00012249000000","CLASSIFICATION_TYPE":"U","MEAN_MOTION_DDOT":"0.0000000000000","ECCENTRICITY":"0.00018060","GP_ID":"201878228","COUNTRY_CODE":"US","APOAPSIS":"548.507","OBJECT_NAME":"STARLINK-1284","MEAN_ELEMENT_THEORY":"SGP4","TLE_LINE2":"2 45390  53.0539  24.3885 0001806  48.9935 311.1210 15.06385914116549","EPHEMERIS_TYPE":"0","PERIAPSIS":"546.006","FILE":"3412883","ELEMENT_SET_NO":"999","OBJECT_TYPE":"PAYLOAD","ARG_OF_PERICENTER":"48.9935","MEAN_ANOMALY":"311.1210","MEAN_MOTION_DOT":"-0.00002105","RCS_SIZE":"LARGE","PERIOD":"95.593","MEAN_MOTION":"15.06385914","INCLINATION":"53.0539","TIME_SYSTEM":"UTC","REF_FRAME":"TEME","TLE_LINE1":"1 45390U 20019AG  22113.44543557 -.00002105  00000-0 -12249-3 0  9990","EPOCH":"2022-04-23T10:41:25.633248"},{"OBJECT_TYPE":"PAYLOAD","FILE":"3412883","ELEMENT_SET_NO":"999","PERIAPSIS":"546.359","EPHEMERIS_TYPE":"0","PERIOD":"95.593","RCS_SIZE":"LARGE","MEAN_ANOMALY":"283.2822","MEAN_MOTION_DOT":"-0.00001222","ARG_OF_PERICENTER":"76.8309","TIME_SYSTEM":"UTC","INCLINATION":"53.0563","MEAN_MOTION":"15.06391338","EPOCH":"2022-04-23T11:02:39.632352","TLE_LINE1":"1 45391U 20019AH  22113.46018093 -.00001222  00000-0 -63175-4 0  9999","REF_FRAME":"TEME","SEMIMAJOR_AXIS":"6925.375","REV_AT_EPOCH":"11627","NORAD_CAT_ID":"45391","LAUNCH_DATE":"2020-03-18","OBJECT_ID":"2020-019AH","MEAN_MOTION_DDOT":"0.0000000000000","BSTAR":"-0.00006317500000","CLASSIFICATION_TYPE":"U","DECAY_DATE":null,"RA_OF_ASC_NODE":"24.3252","SITE":"AFETR","CENTER_NAME":"EARTH","GP_ID":"201878478","ECCENTRICITY":"0.00012730","TLE_LINE2":"2 45391  53.0563  24.3252 0001273  76.8309 283.2822 15.06391338116273","OBJECT_NAME":"STARLINK-1289","MEAN_ELEMENT_THEORY":"SGP4","APOAPSIS":"548.122","COUNTRY_CODE":"US"},{"CENTER_NAME":"EARTH","SITE":"AFETR","DECAY_DATE":null,"RA_OF_ASC_NODE":"17.7157","BSTAR":"0.00169440000000","CLASSIFICATION_TYPE":"U","MEAN_MOTION_DDOT":"0.0000000000000","OBJECT_ID":"2020-019AJ","NORAD_CAT_ID":"45392","LAUNCH_DATE":"2020-03-18","REV_AT_EPOCH":"11629","SEMIMAJOR_AXIS":"6909.436","COUNTRY_CODE":"US","APOAPSIS":"532.262","MEAN_ELEMENT_THEORY":"SGP4","OBJECT_NAME":"STARLINK-1290","TLE_LINE2":"2 45392  52.9962  17.7157 0001391 108.1717 251.9425 15.11606885116293","ECCENTRICITY":"0.00013910","GP_ID":"201879728","ARG_OF_PERICENTER":"108.1717","MEAN_MOTION_DOT":"0.00028931","MEAN_ANOMALY":"251.9425","RCS_SIZE":"LARGE","PERIOD":"95.263","EPHEMERIS_TYPE":"0","PERIAPSIS":"530.340","ELEMENT_SET_NO":"999","FILE":"3412883","OBJECT_TYPE":"PAYLOAD","REF_FRAME":"TEME","TLE_LINE1":"1 45392U 20019AJ  22113.14282222  .00028931  00000-0  16944-2 0  9996","EPOCH":"2022-04-23T03:25:39.839808","MEAN_MOTION":"15.11606885","INCLINATION":"52.9962","TIME_SYSTEM":"UTC"},{"REV_AT_EPOCH":"11631","SEMIMAJOR_AXIS":"6925.383","OBJECT_ID":"2020-019AK","LAUNCH_DATE":"2020-03-18","NORAD_CAT_ID":"45393","CLASSIFICATION_TYPE":"U","BSTAR":"-0.00006535800000","DECAY_DATE":null,"RA_OF_ASC_NODE":"24.1859","MEAN_MOTION_DDOT":"0.0000000000000","CENTER_NAME":"EARTH","SITE":"AFETR","GP_ID":"201879479","ECCENTRICITY":"0.00014020","APOAPSIS":"548.219","COUNTRY_CODE":"US","TLE_LINE2":"2 45393  53.0563  24.1859 0001402  85.3724 274.7425 15.06388766116316","OBJECT_NAME":"STARLINK-1291","MEAN_ELEMENT_THEORY":"SGP4","FILE":"3412883","ELEMENT_SET_NO":"999","OBJECT_TYPE":"PAYLOAD","PERIAPSIS":"546.277","EPHEMERIS_TYPE":"0","RCS_SIZE":"LARGE","PERIOD":"95.593","ARG_OF_PERICENTER":"85.3724","MEAN_MOTION_DOT":"-0.00001254","MEAN_ANOMALY":"274.7425","INCLINATION":"53.0563","TIME_SYSTEM":"UTC","MEAN_MOTION":"15.06388766","EPOCH":"2022-04-23T11:45:07.411104","REF_FRAME":"TEME","TLE_LINE1":"1 45393U 20019AK  22113.48966911 -.00001254  00000-0 -65358-4 0  9994"},{"TLE_LINE1":"1 45394U 20019AL  22113.45280987 -.00000254  00000-0  18147-5 0  9997","REF_FRAME":"TEME","EPOCH":"2022-04-23T10:52:02.772768","MEAN_MOTION":"15.06388047","TIME_SYSTEM":"UTC","INCLINATION":"53.0565","MEAN_ANOMALY":"287.7338","MEAN_MOTION_DOT":"-0.00000254","ARG_OF_PERICENTER":"72.3794","PERIOD":"95.593","RCS_SIZE":"LARGE","EPHEMERIS_TYPE":"0","PERIAPSIS":"546.344","OBJECT_TYPE":"PAYLOAD","ELEMENT_SET_NO":"999","FILE":"3412883","MEAN_ELEMENT_THEORY":"SGP4","OBJECT_NAME":"STARLINK-1292","TLE_LINE2":"2 45394  53.0565  24.3580 0001309  72.3794 287.7338 15.06388047116286","APOAPSIS":"548.157","COUNTRY_CODE":"US","GP_ID":"201878728","ECCENTRICITY":"0.00013090","SITE":"AFETR","CENTER_NAME":"EARTH","MEAN_MOTION_DDOT":"0.0000000000000","RA_OF_ASC_NODE":"24.3580","DECAY_DATE":null,"BSTAR":"0.00000181470000","CLASSIFICATION_TYPE":"U","LAUNCH_DATE":"2020-03-18","NORAD_CAT_ID":"45394","OBJECT_ID":"2020-019AL","SEMIMAJOR_AXIS":"6925.385","REV_AT_EPOCH":"11628"},{"SITE":"AFETR","CENTER_NAME":"EARTH","MEAN_MOTION_DDOT":"0.0000000000000","BSTAR":"0.00005640100000","CLASSIFICATION_TYPE":"U","RA_OF_ASC_NODE":"24.2338","DECAY_DATE":null,"NORAD_CAT_ID":"45395","LAUNCH_DATE":"2020-03-18","OBJECT_ID":"2020-019AM","SEMIMAJOR_AXIS":"6925.357","REV_AT_EPOCH":"11573","TLE_LINE2":"2 45395  53.0556  24.2338 0001436  76.0971 284.0177 15.06397225115734","MEAN_ELEMENT_THEORY":"SGP4","OBJECT_NAME":"STARLINK-1297","COUNTRY_CODE":"US","APOAPSIS":"548.217","ECCENTRICITY":"0.00014360","GP_ID":"201878978","MEAN_MOTION_DOT":"0.00000559","MEAN_ANOMALY":"284.0177","ARG_OF_PERICENTER":"76.0971","PERIOD":"95.592","RCS_SIZE":"LARGE","PERIAPSIS":"546.228","EPHEMERIS_TYPE":"0","OBJECT_TYPE":"PAYLOAD","ELEMENT_SET_NO":"999","FILE":"3412883","TLE_LINE1":"1 45395U 20019AM  22113.48229240  .00000559  00000-0  56401-4 0  9997","REF_FRAME":"TEME","EPOCH":"2022-04-23T11:34:30.063360","MEAN_MOTION":"15.06397225","TIME_SYSTEM":"UTC","INCLINATION":"53.0556"},{"GP_ID":"201879229","ECCENTRICITY":"0.00011580","COUNTRY_CODE":"US","APOAPSIS":"548.054","TLE_LINE2":"2 45396  53.0559  24.2951 0001158  76.3586 283.7532 15.06387362116266","MEAN_ELEMENT_THEORY":"SGP4","OBJECT_NAME":"STARLINK-1303","OBJECT_ID":"2020-019AN","LAUNCH_DATE":"2020-03-18","NORAD_CAT_ID":"45396","REV_AT_EPOCH":"11626","SEMIMAJOR_AXIS":"6925.387","CENTER_NAME":"EARTH","SITE":"AFETR","BSTAR":"0.00011298000000","CLASSIFICATION_TYPE":"U","RA_OF_ASC_NODE":"24.2951","DECAY_DATE":null,"MEAN_MOTION_DDOT":"0.0000000000000","MEAN_MOTION":"15.06387362","INCLINATION":"53.0559","TIME_SYSTEM":"UTC","REF_FRAME":"TEME","TLE_LINE1":"1 45396U 20019AN  22113.46386551  .00001401  00000-0  11298-3 0  9996","EPOCH":"2022-04-23T11:07:57.980064","PERIAPSIS":"546.450","EPHEMERIS_TYPE":"0","FILE":"3412883","ELEMENT_SET_NO":"999","OBJECT_TYPE":"PAYLOAD","ARG_OF_PERICENTER":"76.3586","MEAN_MOTION_DOT":"0.00001401","MEAN_ANOMALY":"283.7532","RCS_SIZE":"LARGE","PERIOD":"95.593"},{"MEAN_MOTION_DOT":"0.00002151","MEAN_ANOMALY":"260.2563","ARG_OF_PERICENTER":"99.8578","PERIOD":"95.592","RCS_SIZE":"LARGE","PERIAPSIS":"546.278","EPHEMERIS_TYPE":"0","OBJECT_TYPE":"PAYLOAD","ELEMENT_SET_NO":"999","FILE":"3412883","TLE_LINE1":"1 45397U 20019AP  22113.47492047  .00002151  00000-0  16324-3 0  9994","REF_FRAME":"TEME","EPOCH":"2022-04-23T11:23:53.128608","MEAN_MOTION":"15.06400975","TIME_SYSTEM":"UTC","INCLINATION":"53.0548","SITE":"AFETR","CENTER_NAME":"EARTH","MEAN_MOTION_DDOT":"0.0000000000000","CLASSIFICATION_TYPE":"U","BSTAR":"0.00016324000000","RA_OF_ASC_NODE":"24.2443","DECAY_DATE":null,"NORAD_CAT_ID":"45397","LAUNCH_DATE":"2020-03-18","OBJECT_ID":"2020-019AP","SEMIMAJOR_AXIS":"6925.346","REV_AT_EPOCH":"11637","TLE_LINE2":"2 45397  53.0548  24.2443 0001347  99.8578 260.2563 15.06400975116374","MEAN_ELEMENT_THEORY":"SGP4","OBJECT_NAME":"STARLINK-1307","COUNTRY_CODE":"US","APOAPSIS":"548.143","ECCENTRICITY":"0.00013470","GP_ID":"201879979"},{"EPOCH":"2022-04-23T17:35:25.863072","REF_FRAME":"TEME","TLE_LINE1":"1 45398U 20019AQ  22113.73293823 -.00000602  00000-0 -21497-4 0  9994","INCLINATION":"53.0550","TIME_SYSTEM":"UTC","MEAN_MOTION":"15.06393109","RCS_SIZE":"LARGE","PERIOD":"95.593","ARG_OF_PERICENTER":"83.9678","MEAN_ANOMALY":"276.1467","MEAN_MOTION_DOT":"-0.00000602","FILE":"3413124","ELEMENT_SET_NO":"999","OBJECT_TYPE":"PAYLOAD","EPHEMERIS_TYPE":"0","PERIAPSIS":"546.285","COUNTRY_CODE":"US","APOAPSIS":"548.185","MEAN_ELEMENT_THEORY":"SGP4","OBJECT_NAME":"STARLINK-1312","TLE_LINE2":"2 45398  53.0550  23.0827 0001372  83.9678 276.1467 15.06393109116340","GP_ID":"201890223","ECCENTRICITY":"0.00013720","RA_OF_ASC_NODE":"23.0827","DECAY_DATE":null,"CLASSIFICATION_TYPE":"U","BSTAR":"-0.00002149700000","MEAN_MOTION_DDOT":"0.0000000000000","CENTER_NAME":"EARTH","SITE":"AFETR","REV_AT_EPOCH":"11634","SEMIMAJOR_AXIS":"6925.370","OBJECT_ID":"2020-019AQ","LAUNCH_DATE":"2020-03-18","NORAD_CAT_ID":"45398"},{"INCLINATION":"53.0553","TIME_SYSTEM":"UTC","MEAN_MOTION":"15.06394343","EPOCH":"2022-04-23T10:37:26.923008","REF_FRAME":"TEME","TLE_LINE1":"1 45399U 20019AR  22113.44267272  .00000277  00000-0  37537-4 0  9990","FILE":"3412883","ELEMENT_SET_NO":"999","OBJECT_TYPE":"PAYLOAD","PERIAPSIS":"546.048","EPHEMERIS_TYPE":"0","RCS_SIZE":"LARGE","PERIOD":"95.592","ARG_OF_PERICENTER":"57.7460","MEAN_ANOMALY":"302.3694","MEAN_MOTION_DOT":"0.00000277","GP_ID":"201878479","ECCENTRICITY":"0.00017080","COUNTRY_CODE":"US","APOAPSIS":"548.414","TLE_LINE2":"2 45399  53.0553  14.3895 0001708  57.7460 302.3694 15.06394343116494","MEAN_ELEMENT_THEORY":"SGP4","OBJECT_NAME":"STARLINK-1255","REV_AT_EPOCH":"11649","SEMIMAJOR_AXIS":"6925.366","OBJECT_ID":"2020-019AR","NORAD_CAT_ID":"45399","LAUNCH_DATE":"2020-03-18","BSTAR":"0.00003753700000","CLASSIFICATION_TYPE":"U","DECAY_DATE":null,"RA_OF_ASC_NODE":"14.3895","MEAN_MOTION_DDOT":"0.0000000000000","CENTER_NAME":"EARTH","SITE":"AFETR"}];
